NORAD_CAT_ID,OBJECT_NAME,OBJECT_TYPE,EPOCH,MEAN_MOTION,ECCENTRICITY,INCLINATION,RA_OF_ASC_NODE,ARG_OF_PERICENTER,MEAN_ANOMALY,BSTAR,MEAN_MOTION_DOT,MEAN_MOTION_DDOT,TLE_LINE0,TLE_LINE1,TLE_LINE2,SEMIMAJOR_AXIS,PERIOD,APOGEE,PERIGEE,DECAYED
52861.0,STARLINK-4112,PAYLOAD,2024-01-22 00:02:13,15.0884161,0.0001535,53.2167,275.3083,108.4368,251.6791,8.0351e-05,9.91e-06,0.0,0 STARLINK-4112,1 52861U 22062AH  24022.00154667  .00000991  00000-0  80351-4 0  9993,2 52861  53.2167 275.3083 0001535 108.4368 251.6791 15.08841610 89013,6917.875,95.437,540.802,538.679,0.0
52861.0,STARLINK-4112,PAYLOAD,2024-01-22 22:17:37,15.08837928,0.0001541,53.2152,271.1431,130.954,229.1586,2.9476e-05,1.81e-06,0.0,0 STARLINK-4112,1 52861U 22062AH  24022.92890795  .00000181  00000-0  29476-4 0  9995,2 52861  53.2152 271.1431 0001541 130.9540 229.1586 15.08837928 88666,6917.887,95.438,540.818,538.686,0.0
52861.0,STARLINK-4112,PAYLOAD,2024-01-22 23:53:00,15.08837808,0.0001854,53.2165,270.8486,149.9167,210.1932,4.3663e-05,4.07e-06,0.0,0 STARLINK-4112,1 52861U 22062AH  24022.99514888  .00000407  00000-0  43663-4 0  9993,2 52861  53.2165 270.8486 0001854 149.9167 210.1932 15.08837808 89166,6917.887,95.438,541.035,538.47,0.0
52861.0,STARLINK-4112,PAYLOAD,2024-01-23 22:08:24,15.08846182,0.0001716,53.2163,266.6856,69.9122,290.2054,0.00019831,2.87e-05,0.0,0 STARLINK-4112,1 52861U 22062AH  24023.92251069  .00002870  00000-0  19831-3 0  9991,2 52861  53.2163 266.6856 0001716  69.9122 290.2054 15.08846182 88817,6917.861,95.437,540.914,538.539,0.0
52861.0,STARLINK-4112,PAYLOAD,2024-01-23 23:43:47,15.08855205,0.0001447,53.2164,266.3883,85.9666,274.1491,0.00032239,4.849e-05,0.0,0 STARLINK-4112,1 52861U 22062AH  24023.98874554  .00004849  00000-0  32239-3 0  9992,2 52861  53.2164 266.3883 0001447  85.9666 274.1491 15.08855205 89315,6917.834,95.437,540.7,538.698,0.0
52861.0,STARLINK-4112,PAYLOAD,2024-01-24 20:23:48,15.08839795,0.000112,53.2161,262.5237,129.0952,231.014,0.00021779,3.18e-05,0.0,0 STARLINK-4112,1 52861U 22062AH  24024.84987191  .00003180  00000-0  21779-3 0  9994,2 52861  53.2161 262.5237 0001120 129.0952 231.0140 15.08839795 89442,6917.881,95.438,540.521,538.971,0.0
52861.0,STARLINK-4112,PAYLOAD,2024-01-24 21:59:11,15.0884166,0.0001461,53.2158,262.2272,142.3484,217.761,0.00016123,2.279e-05,0.0,0 STARLINK-4112,1 52861U 22062AH  24024.91610889  .00002279  00000-0  16123-3 0  9994,2 52861  53.2158 262.2272 0001461 142.3484 217.7610 15.08841660 88963,6917.875,95.437,540.751,538.73,0.0
52861.0,STARLINK-4112,PAYLOAD,2024-01-25 21:49:59,15.08842373,0.0001378,53.215,257.7684,88.6381,271.4768,-2.874e-05,-7.45e-06,0.0,0 STARLINK-4112,1 52861U 22062AH  24025.90971386 -.00000745  00000-0 -28740-4 0  9993,2 52861  53.2150 257.7684 0001378  88.6381 271.4768 15.08842373 89117,6917.873,95.437,540.691,538.785,0.0
52861.0,STARLINK-4112,PAYLOAD,2024-01-26 21:40:46,15.08846531,0.0001401,53.2153,253.2989,89.8166,270.2986,0.00026076,3.865e-05,0.0,0 STARLINK-4112,1 52861U 22062AH  24026.90331102  .00003865  00000-0  26076-3 0  9993,2 52861  53.2153 253.2989 0001401  89.8166 270.2986 15.08846531 89265,6917.86,95.437,540.695,538.756,0.0
52861.0,STARLINK-4112,PAYLOAD,2024-01-27 19:56:10,15.08842996,0.0001449,53.2157,249.1356,92.9793,267.1365,8.4686e-05,1.06e-05,0.0,0 STARLINK-4112,1 52861U 22062AH  24027.83067160  .00001060  00000-0  84686-4 0  9993,2 52861  53.2157 249.1356 0001449  92.9793 267.1365 15.08842996 89890,6917.871,95.437,540.739,538.734,0.0
52861.0,STARLINK-4112,PAYLOAD,2024-01-28 00:42:19,15.08842223,0.0001504,53.216,248.2472,99.2645,260.8517,5.3363e-05,5.61e-06,0.0,0 STARLINK-4112,1 52861U 22062AH  24028.02939105  .00000561  00000-0  53363-4 0  9995,2 52861  53.2160 248.2472 0001504  99.2645 260.8517 15.08842223 89433,6917.874,95.437,540.779,538.698,0.0
52861.0,STARLINK-4112,PAYLOAD,2024-01-28 19:46:57,15.08836597,0.0001588,53.2167,244.6767,111.9133,248.2028,3.0392e-06,-2.4e-06,0.0,0 STARLINK-4112,1 52861U 22062AH  24028.82427731 -.00000240  00000-0  30392-5 0  9993,2 52861  53.2167 244.6767 0001588 111.9133 248.2028 15.08836597 90046,6917.891,95.438,540.854,538.657,0.0
52861.0,STARLINK-4112,PAYLOAD,2024-01-28 21:22:20,15.08835977,0.0001435,53.2165,244.3793,101.1478,258.9676,-1.3638e-05,-5.05e-06,0.0,0 STARLINK-4112,1 52861U 22062AH  24028.89051838 -.00000505  00000-0 -13638-4 0  9999,2 52861  53.2165 244.3793 0001435 101.1478 258.9676 15.08835977 89567,6917.893,95.438,540.75,538.765,0.0
52861.0,STARLINK-4112,PAYLOAD,2024-01-29 00:33:07,15.08835408,0.0001456,53.2166,243.785,102.6115,257.504,-2.0194e-05,-6.09e-06,0.0,0 STARLINK-4112,1 52861U 22062AH  24029.02299901 -.00000609  00000-0 -20194-4 0  9990,2 52861  53.2166 243.7850 0001456 102.6115 257.5040 15.08835408 89583,6917.894,95.438,540.767,538.752,0.0
52861.0,STARLINK-4112,PAYLOAD,2024-01-30 00:23:53,15.08846176,0.0001323,53.2162,239.3249,95.3131,264.8012,0.0001394,1.932e-05,0.0,0 STARLINK-4112,1 52861U 22062AH  24030.01658748  .00001932  00000-0  13940-3 0  9997,2 52861  53.2162 239.3249 0001323  95.3131 264.8012 15.08846176 90228,6917.862,95.437,540.642,538.811,0.0
52861.0,STARLINK-4112,PAYLOAD,2024-01-30 19:28:31,15.08836267,0.0001118,53.2152,235.7589,93.7836,266.3284,1.8176e-05,1e-08,0.0,0 STARLINK-4112,1 52861U 22062AH  24030.81147820  .00000001  00000-0  18176-4 0  9992,2 52861  53.2152 235.7589 0001118  93.7836 266.3284 15.08836267 90341,6917.892,95.438,540.53,538.983,0.0
52861.0,STARLINK-4112,PAYLOAD,2024-01-30 21:03:54,15.08836302,0.0001133,53.2153,235.4614,93.9076,266.2046,1.7635e-05,-7e-08,0.0,0 STARLINK-4112,1 52861U 22062AH  24030.87771795 -.00000007  00000-0  17635-4 0  9998,2 52861  53.2153 235.4614 0001133  93.9076 266.2046 15.08836302 89863,6917.892,95.438,540.54,538.973,0.0
52861.0,STARLINK-4112,PAYLOAD,2024-01-31 12:57:46,15.08840397,0.000116,53.2151,232.484,101.8148,258.2975,-1.9954e-05,-6.05e-06,0.0,0 STARLINK-4112,1 52861U 22062AH  24031.54011664 -.00000605  00000-0 -19954-4 0  9996,2 52861  53.2151 232.4840 0001160 101.8148 258.2975 15.08840397 89960,6917.879,95.438,540.547,538.942,0.0
52861.0,STARLINK-4112,PAYLOAD,2024-02-01 12:48:33,15.08837749,0.0001142,53.2151,228.0257,92.764,267.3483,7.5329e-05,9.11e-06,0.0,0 STARLINK-4112,1 52861U 22062AH  24032.53371607  .00000911  00000-0  75329-4 0  9998,2 52861  53.2151 228.0257 0001142  92.7640 267.3483 15.08837749 90119,6917.887,95.438,540.542,538.962,0.0
52861.0,STARLINK-4112,PAYLOAD,2024-02-02 12:39:19,15.08841982,0.0001177,53.2154,223.5646,89.9324,270.1804,4.9543e-05,5.01e-06,0.0,0 STARLINK-4112,1 52861U 22062AH  24033.52731400  .00000501  00000-0  49543-4 0  9993,2 52861  53.2154 223.5646 0001177  89.9324 270.1804 15.08841982 90268,6917.874,95.437,540.554,538.925,0.0
52861.0,STARLINK-4112,PAYLOAD,2024-02-02 17:25:29,15.08842592,0.000139,53.2175,222.6767,82.7546,277.3604,7.6341e-05,9.27e-06,0.0,0 STARLINK-4112,1 52861U 22062AH  24033.72603408  .00000927  00000-0  76341-4 0  9999,2 52861  53.2175 222.6767 0001390  82.7546 277.3604 15.08842592 90781,6917.872,95.437,540.699,538.776,0.0
52861.0,STARLINK-4112,PAYLOAD,2024-02-03 12:30:07,15.08840307,0.000147,53.2178,219.1097,86.4968,273.6192,4.2403e-05,3.87e-06,0.0,0 STARLINK-4112,1 52861U 22062AH  24034.52091660  .00000387  00000-0  42403-4 0  9991,2 52861  53.2178 219.1097 0001470  86.4968 273.6192 15.08840307 90412,6917.879,95.438,540.761,538.728,0.0
52861.0,STARLINK-4112,PAYLOAD,2024-02-03 18:51:39,15.08837955,0.0001365,53.2168,217.9174,94.0712,266.0436,1.9498e-05,2.2e-07,0.0,0 STARLINK-4112,1 52861U 22062AH  24034.78587835  .00000022  00000-0  19498-4 0  9997,2 52861  53.2168 217.9174 0001365  94.0712 266.0436 15.08837955 90948,6917.887,95.438,540.696,538.807,0.0
52861.0,STARLINK-4112,PAYLOAD,2024-02-04 12:20:54,15.08841381,0.0001329,53.2167,214.646,93.158,266.9565,3.4888e-05,2.67e-06,0.0,0 STARLINK-4112,1 52861U 22062AH  24035.51451620  .00000267  00000-0  34888-4 0  9992,2 52861  53.2167 214.6460 0001329  93.1580 266.9565 15.08841381 90560,6917.876,95.437,540.661,538.822,0.0
52861.0,STARLINK-4112,PAYLOAD,2024-02-04 18:42:26,15.08844643,0.000134,53.2166,213.4566,93.3952,266.7193,6.059e-05,6.77e-06,0.0,0 STARLINK-4112,1 52861U 22062AH  24035.77947297  .00000677  00000-0  60590-4 0  9994,2 52861  53.2166 213.4566 0001340  93.3952 266.7193 15.08844643 91099,6917.866,95.437,540.658,538.804,0.0
52861.0,STARLINK-4112,PAYLOAD,2024-02-05 12:11:41,15.08835195,0.0001367,53.2168,210.1851,93.6475,266.4673,4.6169e-05,4.47e-06,0.0,0 STARLINK-4112,1 52861U 22062AH  24036.50811983  .00000447  00000-0  46169-4 0  9999,2 52861  53.2168 210.1851 0001367  93.6475 266.4673 15.08835195 91209,6917.895,95.438,540.706,538.814,0.0
52861.0,STARLINK-4112,PAYLOAD,2024-02-05 16:57:51,15.08835165,0.0001358,53.217,209.2931,93.3846,266.7302,4.1936e-05,3.79e-06,0.0,0 STARLINK-4112,1 52861U 22062AH  24036.70684053  .00000379  00000-0  41936-4 0  9998,2 52861  53.2170 209.2931 0001358  93.3846 266.7302 15.08835165 90746,6917.895,95.438,540.7,538.821,0.0
52861.0,STARLINK-4112,PAYLOAD,2024-02-06 12:02:29,15.08833707,0.0001448,53.2174,205.7254,97.3775,262.7381,-2.3538e-05,-6.62e-06,0.0,0 STARLINK-4112,1 52861U 22062AH  24037.50172685 -.00000662  00000-0 -23538-4 0  9995,2 52861  53.2174 205.7254 0001448  97.3775 262.7381 15.08833707 90860,6917.9,95.438,540.766,538.763,0.0
52861.0,STARLINK-4112,PAYLOAD,2024-02-06 18:24:01,15.08837015,0.0001408,53.2172,204.5365,93.6371,266.4782,2.0096e-06,-2.56e-06,0.0,0 STARLINK-4112,1 52861U 22062AH  24037.76668478 -.00000256  00000-0  20096-5 0  9998,2 52861  53.2172 204.5365 0001408  93.6371 266.4782 15.08837015 91396,6917.89,95.438,540.729,538.78,0.0
52861.0,STARLINK-4112,PAYLOAD,2024-02-07 18:14:47,15.08845264,0.0001395,53.217,200.0738,78.6748,281.4401,0.00015214,2.135e-05,0.0,0 STARLINK-4112,1 52861U 22062AH  24038.76027691  .00002135  00000-0  15214-3 0  9996,2 52861  53.2170 200.0738 0001395  78.6748 281.4401 15.08845264 91542,6917.864,95.437,540.694,538.764,0.0
